NORAD_CAT_ID,OBJECT_NAME,OBJECT_TYPE,EPOCH,MEAN_MOTION,ECCENTRICITY,INCLINATION,RA_OF_ASC_NODE,ARG_OF_PERICENTER,MEAN_ANOMALY,BSTAR,MEAN_MOTION_DOT,MEAN_MOTION_DDOT,TLE_LINE0,TLE_LINE1,TLE_LINE2,SEMIMAJOR_AXIS,PERIOD,APOGEE,PERIGEE,DECAYED
53992.0,STARLINK-5108,PAYLOAD,2024-04-23 05:52:04,15.08835834,0.0001295,53.2202,51.1929,122.2653,237.8464,0.00022887,3.356e-05,0.0,0 STARLINK-5108,1 53992U 22125AE  24114.24449325  .00003356  00000-0  22887-3 0  9992,2 53992  53.2202  51.1929 0001295 122.2653 237.8464 15.08835834 85977,6917.893,95.438,540.654,538.862,0.0
53992.0,STARLINK-5108,PAYLOAD,2024-04-24 02:32:03,15.0886629,0.0001375,53.2194,47.3331,125.8717,234.2403,-2.623e-05,-7.06e-06,0.0,0 STARLINK-5108,1 53992U 22125AE  24115.10559888 -.00000706  00000-0 -26230-4 0  9999,2 53992  53.2194  47.3331 0001375 125.8717 234.2403 15.08866290 86188,6917.8,95.436,540.616,538.714,0.0
53992.0,STARLINK-5108,PAYLOAD,2024-04-24 05:42:49,15.08867117,0.000127,53.2191,46.7337,118.2456,241.8664,4.0745e-06,-2.23e-06,0.0,0 STARLINK-5108,1 53992U 22125AE  24115.23807583 -.00000223  00000-0  40745-5 0  9992,2 53992  53.2191  46.7337 0001270 118.2456 241.8664 15.08867117 86120,6917.798,95.436,540.541,538.784,0.0
53992.0,STARLINK-5108,PAYLOAD,2024-04-25 03:58:14,15.08855173,9.26e-05,53.2196,42.5746,85.9156,274.1942,7.4882e-05,9.05e-06,0.0,0 STARLINK-5108,1 53992U 22125AE  24116.16544413  .00000905  00000-0  74882-4 0  9999,2 53992  53.2196  42.5746 0000926  85.9156 274.1942 15.08855173 86348,6917.834,95.437,540.34,539.058,0.0
53992.0,STARLINK-5108,PAYLOAD,2024-04-26 03:49:01,15.08855124,0.0001174,53.2191,38.1064,104.4303,255.682,0.00010567,1.395e-05,0.0,0 STARLINK-5108,1 53992U 22125AE  24117.15904470  .00001395  00000-0  10567-3 0  9995,2 53992  53.2191  38.1064 0001174 104.4303 255.6820 15.08855124 86495,6917.834,95.437,540.511,538.887,0.0
53992.0,STARLINK-5108,PAYLOAD,2024-04-26 11:45:57,15.08846531,0.0001333,53.2185,36.6246,87.914,272.2005,-5.728e-05,-1.2e-05,0.0,0 STARLINK-5108,1 53992U 22125AE  24117.49025294 -.00001200  00000-0 -57280-4 0  9991,2 53992  53.2185  36.6246 0001333  87.9140 272.2005 15.08846531 86542,6917.86,95.437,540.648,538.803,0.0
53992.0,STARLINK-5108,PAYLOAD,2024-04-27 03:39:47,15.08871723,0.0001155,53.2184,33.6512,99.6248,260.4874,0.00022966,3.372e-05,0.0,0 STARLINK-5108,1 53992U 22125AE  24118.15262893  .00003372  00000-0  22966-3 0  9995,2 53992  53.2184  33.6512 0001155  99.6248 260.4874 15.08871723 86640,6917.783,95.436,540.447,538.849,0.0
53992.0,STARLINK-5108,PAYLOAD,2024-04-27 11:36:45,15.08836689,0.0002165,53.2185,32.1665,67.5567,292.5655,3.0689e-05,2e-06,0.0,0 STARLINK-5108,1 53992U 22125AE  24118.48386010  .00000200  00000-0  30689-4 0  9998,2 53992  53.2185  32.1665 0002165  67.5567 292.5655 15.08836689 86694,6917.891,95.438,541.253,538.258,0.0
53992.0,STARLINK-5108,PAYLOAD,2024-04-28 03:30:36,15.08848956,0.0001133,53.2194,29.1934,90.0982,270.014,-8.2354e-06,-4.19e-06,0.0,0 STARLINK-5108,1 53992U 22125AE  24119.14625259 -.00000419  00000-0 -82354-5 0  9994,2 53992  53.2194  29.1934 0001133  90.0982 270.0140 15.08848956 86796,6917.853,95.437,540.502,538.934,0.0
53992.0,STARLINK-5108,PAYLOAD,2024-04-28 11:27:32,15.08842757,0.0001355,53.2198,27.7056,90.255,269.8597,-7.0985e-05,-1.418e-05,0.0,0 STARLINK-5108,1 53992U 22125AE  24119.47745773 -.00001418  00000-0 -70985-4 0  9990,2 53992  53.2198  27.7056 0001355  90.2550 269.8597 15.08842757 86849,6917.872,95.437,540.674,538.8,0.0
53992.0,STARLINK-5108,PAYLOAD,2024-04-28 22:35:14,15.08844344,0.0001664,53.2195,25.6242,84.6779,275.4403,6.7373e-06,-1.81e-06,0.0,0 STARLINK-5108,1 53992U 22125AE  24119.94113556 -.00000181  00000-0  67373-5 0  9993,2 53992  53.2195  25.6242 0001664  84.6779 275.4403 15.08844344 86835,6917.867,95.437,540.883,538.581,0.0
53992.0,STARLINK-5108,PAYLOAD,2024-04-29 03:21:22,15.08857009,0.0001453,53.2198,24.7314,92.1235,267.9923,-7.9376e-05,-1.552e-05,0.0,0 STARLINK-5108,1 53992U 22125AE  24120.13984829 -.00001552  00000-0 -79376-4 0  9994,2 53992  53.2198  24.7314 0001453  92.1235 267.9923 15.08857009 86942,6917.828,95.436,540.699,538.688,0.0
53992.0,STARLINK-5108,PAYLOAD,2024-04-29 20:50:38,15.08828647,0.000155,53.2168,21.4622,76.1555,283.9609,0.00011754,1.583e-05,0.0,0 STARLINK-5108,1 53992U 22125AE  24120.86850232  .00001583  00000-0  11754-3 0  9991,2 53992  53.2168  21.4622 0001550  76.1555 283.9609 15.08828647 87058,6917.915,95.438,540.852,538.708,0.0
53992.0,STARLINK-5108,PAYLOAD,2024-04-29 22:26:01,15.08830951,0.0001577,53.2197,21.1673,65.8476,294.2681,0.00013468,1.856e-05,0.0,0 STARLINK-5108,1 53992U 22125AE  24120.93474181  .00001856  00000-0  13468-3 0  9991,2 53992  53.2197  21.1673 0001577  65.8476 294.2681 15.08830951 86986,6917.908,95.438,540.864,538.682,0.0
53992.0,STARLINK-5108,PAYLOAD,2024-04-30 00:01:24,15.08835197,0.0001612,53.2185,20.8638,79.9435,280.1739,9.7151e-05,1.258e-05,0.0,0 STARLINK-5108,1 53992U 22125AE  24121.00097893  .00001258  00000-0  97151-4 0  9999,2 53992  53.2185  20.8638 0001612  79.9435 280.1739 15.08835197 86997,6917.895,95.438,540.875,538.645,0.0
53992.0,STARLINK-5108,PAYLOAD,2024-04-30 20:41:25,15.08839198,0.0001571,53.2194,17.0017,79.7128,280.4041,4.1924e-05,3.79e-06,0.0,0 STARLINK-5108,1 53992U 22125AE  24121.86210028  .00000379  00000-0  41924-4 0  9990,2 53992  53.2194  17.0017 0001571  79.7128 280.4041 15.08839198 87206,6917.883,95.438,540.835,538.661,0.0
53992.0,STARLINK-5108,PAYLOAD,2024-04-30 22:16:48,15.08839423,0.000156,53.2196,16.7042,80.0174,280.0995,4.3791e-05,4.09e-06,0.0,0 STARLINK-5108,1 53992U 22125AE  24121.92834011  .00000409  00000-0  43791-4 0  9999,2 53992  53.2196  16.7042 0001560  80.0174 280.0995 15.08839423 87133,6917.882,95.438,540.826,538.668,0.0
53992.0,STARLINK-5108,PAYLOAD,2024-05-01 09:24:29,15.08848317,0.0001323,53.2193,14.622,80.3342,279.78,3.5808e-05,2.82e-06,0.0,0 STARLINK-5108,1 53992U 22125AE  24122.39201307  .00000282  00000-0  35808-4 0  9996,2 53992  53.2193  14.6220 0001323  80.3342 279.7800 15.08848317 87280,6917.855,95.437,540.635,538.805,0.0
53992.0,STARLINK-5108,PAYLOAD,2024-05-02 09:15:16,15.0884559,0.0001386,53.2182,10.1609,70.5467,289.5675,9.4417e-05,1.215e-05,0.0,0 STARLINK-5108,1 53992U 22125AE  24123.38560982  .00001215  00000-0  94417-4 0  9991,2 53992  53.2182  10.1609 0001386  70.5467 289.5675 15.08845590 87355,6917.863,95.437,540.687,538.769,0.0
53992.0,STARLINK-5108,PAYLOAD,2024-05-02 20:22:59,15.08834827,0.0001898,53.2188,8.0806,77.6671,282.4534,-6.344e-05,-1.298e-05,0.0,0 STARLINK-5108,1 53992U 22125AE  24123.84930368 -.00001298  00000-0 -63440-4 0  9996,2 53992  53.2188   8.0806 0001898  77.6671 282.4534 15.08834827 87503,6917.896,95.438,541.074,538.448,0.0
53992.0,STARLINK-5108,PAYLOAD,2024-05-03 01:09:08,15.08844243,0.0001245,53.2179,7.1874,72.9924,287.1205,1.159e-05,-1.03e-06,0.0,0 STARLINK-5108,1 53992U 22125AE  24124.04801436 -.00000103  00000-0  11590-4 0  9994,2 53992  53.2179   7.1874 0001245  72.9924 287.1205 15.08844243 87536,6917.867,95.437,540.594,538.871,0.0
53992.0,STARLINK-5108,PAYLOAD,2024-05-03 09:06:04,15.0884167,0.0001233,53.2177,5.701,78.7062,281.4068,-1.0088e-05,-4.48e-06,0.0,0 STARLINK-5108,1 53992U 22125AE  24124.37921610 -.00000448  00000-0 -10088-4 0  9991,2 53992  53.2177   5.7010 0001233  78.7062 281.4068 15.08841670 87506,6917.875,95.437,540.593,538.887,0.0
53992.0,STARLINK-5108,PAYLOAD,2024-05-03 21:49:09,15.08846007,0.0001074,53.218,3.3233,78.1984,281.9129,-1.061e-05,-4.57e-06,0.0,0 STARLINK-5108,1 53992U 22125AE  24124.90913278 -.00000457  00000-0 -10610-4 0  9992,2 53992  53.2180   3.3233 0001074  78.1984 281.9129 15.08846007 87581,6917.862,95.437,540.47,538.984,0.0
53992.0,STARLINK-5108,PAYLOAD,2024-05-04 08:56:51,15.08841256,0.0001146,53.2174,1.2411,83.3963,276.716,-4.2948e-05,-9.71e-06,0.0,0 STARLINK-5108,1 53992U 22125AE  24125.37281565 -.00000971  00000-0 -42948-4 0  9991,2 53992  53.2174   1.2411 0001146  83.3963 276.7160 15.08841256 87739,6917.877,95.437,540.534,538.949,0.0
53992.0,STARLINK-5108,PAYLOAD,2024-05-04 20:04:33,15.08828298,0.0001609,53.2178,359.1607,89.6637,270.454,7.6082e-05,9.23e-06,0.0,0 STARLINK-5108,1 53992U 22125AE  24125.83650382  .00000923  00000-0  76082-4 0  9990,2 53992  53.2178 359.1607 0001609  89.6637 270.4540 15.08828298 87808,6917.916,95.438,540.894,538.668,0.0
53992.0,STARLINK-5108,PAYLOAD,2024-05-05 15:09:11,15.08840985,0.0001468,53.219,355.5914,91.0476,269.0685,5.7627e-05,6.29e-06,0.0,0 STARLINK-5108,1 53992U 22125AE  24126.63137875  .00000629  00000-0  57627-4 0  9993,2 53992  53.2190 355.5914 0001468  91.0476 269.0685 15.08840985 87849,6917.877,95.437,540.758,538.727,0.0
53992.0,STARLINK-5108,PAYLOAD,2024-05-05 21:30:43,15.08845466,0.0001405,53.2184,354.4037,91.8025,268.3128,8.9511e-05,1.137e-05,0.0,0 STARLINK-5108,1 53992U 22125AE  24126.89633417  .00001137  00000-0  89511-4 0  9996,2 53992  53.2184 354.4037 0001405  91.8025 268.3128 15.08845466 87961,6917.864,95.437,540.701,538.757,0.0
53992.0,STARLINK-5108,PAYLOAD,2024-05-06 21:21:30,15.08840796,0.0001383,53.2192,349.9419,93.6524,266.4627,0.0001262,1.721e-05,0.0,0 STARLINK-5108,1 53992U 22125AE  24127.88993575  .00001721  00000-0  12620-3 0  9995,2 53992  53.2192 349.9419 0001383  93.6524 266.4627 15.08840796 88114,6917.878,95.438,540.7,538.786,0.0
53992.0,STARLINK-5108,PAYLOAD,2024-05-07 00:32:16,15.08846986,0.0001368,53.2192,349.3468,93.6872,266.4277,0.00010375,1.364e-05,0.0,0 STARLINK-5108,1 53992U 22125AE  24128.02241214  .00001364  00000-0  10375-3 0  9996,2 53992  53.2192 349.3468 0001368  93.6872 266.4277 15.08846986 88052,6917.859,95.437,540.67,538.778,0.0
53992.0,STARLINK-5108,PAYLOAD,2024-05-07 21:12:18,15.08835658,0.0001221,53.2174,345.4816,97.4434,262.6697,-3.5293e-05,-8.49e-06,0.0,0 STARLINK-5108,1 53992U 22125AE  24128.88354481 -.00000849  00000-0 -35293-4 0  9997,2 53992  53.2174 345.4816 0001221  97.4434 262.6697 15.08835658 88261,6917.894,95.438,540.603,538.914,0.0
